IRIDIUM 119             
1 42959U 17061E   25350.82156036  .00000278  00000+0  92169-4 0  9997
2 42959  86.3970 101.5097 0001805  96.9295 263.2106 14.34216928428678
IRIDIUM 107             
1 42960U 17061F   25350.84058780  .00000172  00000+0  54532-4 0  9993
2 42960  86.3975 101.5219 0002084 107.7028 252.4395 14.34217476428686
IRIDIUM 132             
1 42961U 17061G   25350.84692873  .00000052  00000+0  11423-4 0  9990
2 42961  86.3971 101.5001 0002042 100.1140 260.0286 14.34215776428683
IRIDIUM 136             
1 42962U 17061H   25350.87864300  .00000118  00000+0  35183-4 0  9992
2 42962  86.3970 101.4926 0001912  98.5204 261.6208 14.34217189428708
IRIDIUM 139             
1 42963U 17061J   25350.81521782  .00000138  00000+0  42238-4 0  9992
2 42963  86.3972 101.5781 0002087 100.0804 260.0628 14.34216898428705
IRIDIUM 125             
1 42964U 17061K   25350.80251273  .00000099  00000+0  28150-4 0  9990
2 42964  86.3974 101.6413 0001713 111.1545 248.9834 14.34212839428717
IRIDIUM 135             
1 43070U 17083A   25350.63711647  .00000225  00000+0  73396-4 0  9993
2 43070  86.3966  38.3148 0002138  93.1174 267.0267 14.34215129417981
IRIDIUM 138             
1 43071U 17083B   25350.66249022  .00000004  00000+0 -55134-5 0  9997
2 43071  86.3974  37.9712 0001671  94.3045 265.8342 14.34217489417974
